[{"OBJECT_NAME":"ONEWEB-0495","OBJECT_ID":"2022-138C","EPOCH":"2025-12-30T05:13:49.578816","MEAN_MOTION":13.19724711,"ECCENTRICITY":0.00020053,"INCLINATION":87.9209,"RA_OF_ASC_NODE":338.5949,"ARG_OF_PERICENTER":63.0931,"MEAN_ANOMALY":297.0406,"EPHEMERIS_TYPE":0,"CLASSIFICATION_TYPE":"U","NORAD_CAT_ID":54115,"ELEMENT_SET_NO":999,"REV_AT_EPOCH":15453,"BSTAR":-8.7382444e-5,"MEAN_MOTION_DOT":-2.2e-7,"MEAN_MOTION_DDOT":0},{"OBJECT_NAME":"ONEWEB-0497","OBJECT_ID":"2022-138D","EPOCH":"2025-12-30T05:32:01.190976","MEAN_MOTION":13.19726506,"ECCENTRICITY":0.0001775,"INCLINATION":87.9214,"RA_OF_ASC_NODE":338.5797,"ARG_OF_PERICENTER":80.3317,"MEAN_ANOMALY":279.8016,"EPHEMERIS_TYPE":0,"CLASSIFICATION_TYPE":"U","NORAD_CAT_ID":54116,"ELEMENT_SET_NO":999,"REV_AT_EPOCH":15452,"BSTAR":0.00013262269,"MEAN_MOTION_DOT":6.6e-7,"MEAN_MOTION_DDOT":0},{"OBJECT_NAME":"ONEWEB-0499","OBJECT_ID":"2022-138E","EPOCH":"2025-12-30T05:08:07.198080","MEAN_MOTION":13.19727265,"ECCENTRICITY":0.00019565,"INCLINATION":87.921,"RA_OF_ASC_NODE":338.5955,"ARG_OF_PERICENTER":80.221,"MEAN_ANOMALY":279.9144,"EPHEMERIS_TYPE":0,"CLASSIFICATION_TYPE":"U","NORAD_CAT_ID":54117,"ELEMENT_SET_NO":999,"REV_AT_EPOCH":15453,"BSTAR":0.00010027512,"MEAN_MOTION_DOT":5.3e-7,"MEAN_MOTION_DDOT":0},{"OBJECT_NAME":"ONEWEB-0500","OBJECT_ID":"2022-138F","EPOCH":"2025-12-29T21:54:51.298272","MEAN_MOTION":13.19725117,"ECCENTRICITY":0.0001679,"INCLINATION":87.9217,"RA_OF_ASC_NODE":338.6432,"ARG_OF_PERICENTER":84.188,"MEAN_ANOMALY":275.9444,"EPHEMERIS_TYPE":0,"CLASSIFICATION_TYPE":"U","NORAD_CAT_ID":54118,"ELEMENT_SET_NO":999,"REV_AT_EPOCH":15450,"BSTAR":6.7141016e-5,"MEAN_MOTION_DOT":4.0e-7,"MEAN_MOTION_DDOT":0},{"OBJECT_NAME":"ONEWEB-0501","OBJECT_ID":"2022-138G","EPOCH":"2025-12-30T04:05:36.187008","MEAN_MOTION":13.19725848,"ECCENTRICITY":0.00019152,"INCLINATION":87.9219,"RA_OF_ASC_NODE":338.5919,"ARG_OF_PERICENTER":72.6049,"MEAN_ANOMALY":287.5293,"EPHEMERIS_TYPE":0,"CLASSIFICATION_TYPE":"U","NORAD_CAT_ID":54119,"ELEMENT_SET_NO":999,"REV_AT_EPOCH":15451,"BSTAR":4.704911e-6,"MEAN_MOTION_DOT":1.5e-7,"MEAN_MOTION_DDOT":0},{"OBJECT_NAME":"ONEWEB-0502","OBJECT_ID":"2022-138H","EPOCH":"2025-12-30T05:34:17.441184","MEAN_MOTION":13.19726243,"ECCENTRICITY":0.00019699,"INCLINATION":87.9219,"RA_OF_ASC_NODE":338.5611,"ARG_OF_PERICENTER":77.169,"MEAN_ANOMALY":282.9663,"EPHEMERIS_TYPE":0,"CLASSIFICATION_TYPE":"U","NORAD_CAT_ID":54120,"ELEMENT_SET_NO":999,"REV_AT_EPOCH":15454,"BSTAR":-7.8341095e-5,"MEAN_MOTION_DOT":-1.8e-7,"MEAN_MOTION_DDOT":0},{"OBJECT_NAME":"ONEWEB-0503","OBJECT_ID":"2022-138J","EPOCH":"2025-12-30T05:18:22.290048","MEAN_MOTION":13.19725949,"ECCENTRICITY":0.00020331,"INCLINATION":87.9222,"RA_OF_ASC_NODE":338.5672,"ARG_OF_PERICENTER":86.9954,"MEAN_ANOMALY":273.1412,"EPHEMERIS_TYPE":0,"CLASSIFICATION_TYPE":"U","NORAD_CAT_ID":54121,"ELEMENT_SET_NO":999,"REV_AT_EPOCH":15453,"BSTAR":9.6114028e-5,"MEAN_MOTION_DOT":5.1e-7,"MEAN_MOTION_DDOT":0},{"OBJECT_NAME":"ONEWEB-0504","OBJECT_ID":"2022-138K","EPOCH":"2025-12-30T05:00:10.999296","MEAN_MOTION":13.1972478,"ECCENTRICITY":0.00019887,"INCLINATION":87.9213,"RA_OF_ASC_NODE":338.5848,"ARG_OF_PERICENTER":78.2783,"MEAN_ANOMALY":281.8572,"EPHEMERIS_TYPE":0,"CLASSIFICATION_TYPE":"U","NORAD_CAT_ID":54122,"ELEMENT_SET_NO":999,"REV_AT_EPOCH":15454,"BSTAR":-3.4645641e-5,"MEAN_MOTION_DOT":-1.0e-8,"MEAN_MOTION_DDOT":0},{"OBJECT_NAME":"ONEWEB-0505","OBJECT_ID":"2022-138L","EPOCH":"2025-12-30T04:55:37.499232","MEAN_MOTION":13.19725584,"ECCENTRICITY":0.00020576,"INCLINATION":87.9221,"RA_OF_ASC_NODE":338.5764,"ARG_OF_PERICENTER":70.0287,"MEAN_ANOMALY":290.1067,"EPHEMERIS_TYPE":0,"CLASSIFICATION_TYPE":"U","NORAD_CAT_ID":54123,"ELEMENT_SET_NO":999,"REV_AT_EPOCH":15452,"BSTAR":-9.3631147e-5,"MEAN_MOTION_DOT":-2.5e-7,"MEAN_MOTION_DDOT":0},{"OBJECT_NAME":"ONEWEB-0506","OBJECT_ID":"2022-138M","EPOCH":"2025-12-30T04:19:14.450304","MEAN_MOTION":13.19725946,"ECCENTRICITY":0.00018683,"INCLINATION":87.9218,"RA_OF_ASC_NODE":338.5786,"ARG_OF_PERICENTER":78.5107,"MEAN_ANOMALY":281.6235,"EPHEMERIS_TYPE":0,"CLASSIFICATION_TYPE":"U","NORAD_CAT_ID":54124,"ELEMENT_SET_NO":999,"REV_AT_EPOCH":15451,"BSTAR":9.251494e-5,"MEAN_MOTION_DOT":5.0e-7,"MEAN_MOTION_DDOT":0},{"OBJECT_NAME":"ONEWEB-0507","OBJECT_ID":"2022-138N","EPOCH":"2025-12-30T04:48:48.785760","MEAN_MOTION":13.19725277,"ECCENTRICITY":0.00018,"INCLINATION":87.9203,"RA_OF_ASC_NODE":338.6065,"ARG_OF_PERICENTER":76.1174,"MEAN_ANOMALY":284.0158,"EPHEMERIS_TYPE":0,"CLASSIFICATION_TYPE":"U","NORAD_CAT_ID":54125,"ELEMENT_SET_NO":999,"REV_AT_EPOCH":15456,"BSTAR":5.7506277e-5,"MEAN_MOTION_DOT":3.6e-7,"MEAN_MOTION_DDOT":0},{"OBJECT_NAME":"ONEWEB-0508","OBJECT_ID":"2022-138P","EPOCH":"2025-12-30T04:44:14.897760","MEAN_MOTION":13.19726182,"ECCENTRICITY":0.00017934,"INCLINATION":87.9213,"RA_OF_ASC_NODE":338.6025,"ARG_OF_PERICENTER":71.5746,"MEAN_ANOMALY":288.5582,"EPHEMERIS_TYPE":0,"CLASSIFICATION_TYPE":"U","NORAD_CAT_ID":54126,"ELEMENT_SET_NO":999,"REV_AT_EPOCH":15454,"BSTAR":7.6028246e-5,"MEAN_MOTION_DOT":4.3e-7,"MEAN_MOTION_DDOT":0},{"OBJECT_NAME":"ONEWEB-0509","OBJECT_ID":"2022-138Q","EPOCH":"2025-12-30T04:07:52.122720","MEAN_MOTION":13.19725679,"ECCENTRICITY":0.00018046,"INCLINATION":87.9218,"RA_OF_ASC_NODE":338.5798,"ARG_OF_PERICENTER":79.1901,"MEAN_ANOMALY":280.9435,"EPHEMERIS_TYPE":0,"CLASSIFICATION_TYPE":"U","NORAD_CAT_ID":54127,"ELEMENT_SET_NO":999,"REV_AT_EPOCH":15451,"BSTAR":-4.2779249e-5,"MEAN_MOTION_DOT":-4.0e-8,"MEAN_MOTION_DDOT":0},{"OBJECT_NAME":"ONEWEB-0510","OBJECT_ID":"2022-138R","EPOCH":"2025-12-30T06:28:14.421504","MEAN_MOTION":13.20771882,"ECCENTRICITY":0.00017303,"INCLINATION":87.922,"RA_OF_ASC_NODE":308.126,"ARG_OF_PERICENTER":94.8024,"MEAN_ANOMALY":265.3307,"EPHEMERIS_TYPE":0,"CLASSIFICATION_TYPE":"U","NORAD_CAT_ID":54128,"ELEMENT_SET_NO":999,"REV_AT_EPOCH":15698,"BSTAR":0.00025923939,"MEAN_MOTION_DOT":1.18e-6,"MEAN_MOTION_DDOT":0},{"OBJECT_NAME":"ONEWEB-0511","OBJECT_ID":"2022-138S","EPOCH":"2025-12-29T22:35:47.594976","MEAN_MOTION":13.19726057,"ECCENTRICITY":0.00020729,"INCLINATION":87.9219,"RA_OF_ASC_NODE":338.6295,"ARG_OF_PERICENTER":86.0028,"MEAN_ANOMALY":274.1342,"EPHEMERIS_TYPE":0,"CLASSIFICATION_TYPE":"U","NORAD_CAT_ID":54129,"ELEMENT_SET_NO":999,"REV_AT_EPOCH":15451,"BSTAR":0.00012685534,"MEAN_MOTION_DOT":6.4e-7,"MEAN_MOTION_DDOT":0},{"OBJECT_NAME":"ONEWEB-0512","OBJECT_ID":"2022-138T","EPOCH":"2025-12-30T05:41:06.628128","MEAN_MOTION":13.19726158,"ECCENTRICITY":0.00019888,"INCLINATION":87.9211,"RA_OF_ASC_NODE":338.5927,"ARG_OF_PERICENTER":75.0491,"MEAN_ANOMALY":285.0862,"EPHEMERIS_TYPE":0,"CLASSIFICATION_TYPE":"U","NORAD_CAT_ID":54130,"ELEMENT_SET_NO":999,"REV_AT_EPOCH":15452,"BSTAR":-0.00028698354,"MEAN_MOTION_DOT":-1.02e-6,"MEAN_MOTION_DDOT":0},{"OBJECT_NAME":"ONEWEB-0513","OBJECT_ID":"2022-138U","EPOCH":"2025-12-30T05:39:11.685888","MEAN_MOTION":13.20260569,"ECCENTRICITY":0.00025423,"INCLINATION":87.9221,"RA_OF_ASC_NODE":338.5526,"ARG_OF_PERICENTER":71.6603,"MEAN_ANOMALY":288.4806,"EPHEMERIS_TYPE":0,"CLASSIFICATION_TYPE":"U","NORAD_CAT_ID":54131,"ELEMENT_SET_NO":999,"REV_AT_EPOCH":15442,"BSTAR":-0.00010632995,"MEAN_MOTION_DOT":-3.0e-7,"MEAN_MOTION_DDOT":0}]
