ONEWEB-0495             
1 54115U 22138C   25364.21793494 -.00000022  00000+0 -87382-4 0  9998
2 54115  87.9209 338.5949 0002005  63.0931 297.0406 13.19724711154535
ONEWEB-0497             
1 54116U 22138D   25364.23056934  .00000066  00000+0  13262-3 0  9993
2 54116  87.9214 338.5797 0001775  80.3317 279.8016 13.19726506154524
ONEWEB-0499             
1 54117U 22138E   25364.21397220  .00000053  00000+0  10028-3 0  9991
2 54117  87.9210 338.5955 0001956  80.2210 279.9144 13.19727265154536
ONEWEB-0500             
1 54118U 22138F   25363.91309373  .00000040  00000+0  67141-4 0  9995
2 54118  87.9217 338.6432 0001679  84.1880 275.9444 13.19725117154503
ONEWEB-0501             
1 54119U 22138G   25364.17055772  .00000015  00000+0  47049-5 0  9994
2 54119  87.9219 338.5919 0001915  72.6049 287.5293 13.19725848154510
ONEWEB-0502             
1 54120U 22138H   25364.23214631 -.00000018  00000+0 -78341-4 0  9997
2 54120  87.9219 338.5611 0001969  77.1690 282.9663 13.19726243154545
ONEWEB-0503             
1 54121U 22138J   25364.22109132  .00000051  00000+0  96114-4 0  9999
2 54121  87.9222 338.5672 0002033  86.9954 273.1412 13.19725949154536
ONEWEB-0504             
1 54122U 22138K   25364.20846064 -.00000001  00000+0 -34646-4 0  9999
2 54122  87.9213 338.5848 0001988  78.2783 281.8572 13.19724780154540
ONEWEB-0505             
1 54123U 22138L   25364.20529513 -.00000025  00000+0 -93631-4 0  9992
2 54123  87.9221 338.5764 0002057  70.0287 290.1067 13.19725584154527
ONEWEB-0506             
1 54124U 22138M   25364.18002836  .00000050  00000+0  92515-4 0  9990
2 54124  87.9218 338.5786 0001868  78.5107 281.6235 13.19725946154514
ONEWEB-0507             
1 54125U 22138N   25364.20056465  .00000036  00000+0  57506-4 0  9996
2 54125  87.9203 338.6065 0001800  76.1174 284.0158 13.19725277154567
ONEWEB-0508             
1 54126U 22138P   25364.19739465  .00000043  00000+0  76028-4 0  9991
2 54126  87.9213 338.6025 0001793  71.5746 288.5582 13.19726182154544
ONEWEB-0509             
1 54127U 22138Q   25364.17213105 -.00000004  00000+0 -42779-4 0  9993
2 54127  87.9218 338.5798 0001804  79.1901 280.9435 13.19725679154516
ONEWEB-0510             
1 54128U 22138R   25364.26961136  .00000118  00000+0  25924-3 0  9994
2 54128  87.9220 308.1260 0001730  94.8024 265.3307 13.20771882156982
ONEWEB-0511             
1 54129U 22138S   25363.94152309  .00000064  00000+0  12686-3 0  9994
2 54129  87.9219 338.6295 0002072  86.0028 274.1342 13.19726057154510
ONEWEB-0512             
1 54130U 22138T   25364.23688227 -.00000102  00000+0 -28698-3 0  9997
2 54130  87.9211 338.5927 0001988  75.0491 285.0862 13.19726158154523
ONEWEB-0513             
1 54131U 22138U   25364.23555192 -.00000030  00000+0 -10633-3 0  9992
2 54131  87.9221 338.5526 0002542  71.6603 288.4806 13.20260569154429
